{"type": "FeatureCollection", "features": [{"type": "Feature", "id": "way/116682887", "properties": {"osm_id": 116682887, "osm_type": "way", "landuse": "cemetery", "name": "Panjagutta Hindu Smashana Vatika", "religion": "hindu"}, "geometry": {"type": "Polygon", "coordinates": [[[78.4474092, 17.4243664], [78.4481548, 17.4258814], [78.4472294, 17.4261666], [78.4471088, 17.4262038], [78.446449, 17.4266312], [78.4458428, 17.4268359], [78.4457489, 17.4263062], [78.4456336, 17.4263241], [78.4455933, 17.4259863], [78.445368, 17.4259479], [78.4453055, 17.4257396], [78.4451293, 17.425152], [78.4447511, 17.4249959], [78.4444963, 17.4249166], [78.4444748, 17.42463], [78.4443702, 17.4244969], [78.4444105, 17.4243229], [78.4445781, 17.4241565], [78.4449999, 17.4242263], [78.4460439, 17.4241079], [78.4460225, 17.4246146], [78.4463095, 17.4248808], [78.4470337, 17.4246709], [78.4474092, 17.4243664]]]}}, {"type": "Feature", "id": "way/359965195", "properties": {"osm_id": 359965195, "osm_type": "way", "amenity": "police", "building": "yes", "name": "Banjara Hills Police Station"}, "geometry": {"type": "Polygon", "coordinates": [[[78.4356787, 17.4225344], [78.4358308, 17.422492], [78.4357607, 17.4222627], [78.4356764, 17.4222862], [78.4357026, 17.422372], [78.4356662, 17.4223821], [78.4356823, 17.4224348], [78.4356509, 17.4224436], [78.4356787, 17.4225344]]]}}, {"type": "Feature", "id": "way/361842575", "properties": {"osm_id": 361842575, "osm_type": "way", "leisure": "park"}, "geometry": {"type": "Polygon", "coordinates": [[[78.439286, 17.4131203], [78.4392767, 17.4129792], [78.4398036, 17.4129292], [78.4398036, 17.4130556], [78.439286, 17.4131203]]]}}, {"type": "Feature", "id": "way/361842576", "properties": {"osm_id": 361842576, "osm_type": "way", "landuse": "grass"}, "geometry": {"type": "Polygon", "coordinates": [[[78.4388243, 17.4126558], [78.4389547, 17.4126263], [78.4389202, 17.4124878], [78.4387899, 17.4125173], [78.4388243, 17.4126558]]]}}, {"type": "Feature", "id": "way/563524286", "properties": {"osm_id": 563524286, "osm_type": "way", "addr:district": "Hyderabad", "addr:full": "Road No 10, Banjara Hills", "addr:postcode": "500034", "addr:state": "Telangana", "amenity": "hospital", "email": "info@induscancer.com", "fax": "040-2354 2120", "healthcare": "hospital", "healthcare:speciality": "Anesthesiology;Critical Care;ENT;Gastroenterology;General Medicine;Gynaecology;Medical Oncology;Micro Biology;Nuclear Medicine;Oncology;Pathology;Radiation Oncology;Surgical Oncology;", "landuse": "Hospital Grounds", "medical_system": "Allopathic", "name": "Basavatarakam Indo American Cancer Institute And Research Centre", "operator:type": "private", "parking": "yes", "phone": "040-23551235;040-23556655", "source": "OpenGovernmentData", "website": "https://induscancer.com", "wheelchair": "yes"}, "geometry": {"type": "Polygon", "coordinates": [[[78.4317178, 17.4166601], [78.4317819, 17.4170523], [78.4317933, 17.4171842], [78.4315064, 17.4172168], [78.4315137, 17.4173225], [78.431167, 17.4173443], [78.4311555, 17.4171772], [78.4306402, 17.4173555], [78.4304077, 17.4175091], [78.4304295, 17.4176281], [78.4302941, 17.4176665], [78.4303421, 17.4178782], [78.4293844, 17.4180087], [78.4293094, 17.4176748], [78.4292883, 17.4175603], [78.4295551, 17.4175066], [78.4294418, 17.4169813], [78.4302987, 17.4168073], [78.4317178, 17.4166601]]]}}, {"type": "Feature", "id": "way/585612916", "properties": {"osm_id": 585612916, "osm_type": "way", "description": "Municipal Park", "leisure": "park", "name": "Sarvat Bari Park"}, "geometry": {"type": "Polygon", "coordinates": [[[78.4433504, 17.4144068], [78.4433362, 17.414295], [78.4425365, 17.4146093], [78.4426278, 17.4147648], [78.4429358, 17.4151818], [78.4429834, 17.4151982], [78.4430028, 17.4152279], [78.4430612, 17.4152124], [78.4431488, 17.4151866], [78.4431655, 17.4152286], [78.4432032, 17.4152252], [78.4431065, 17.4144554], [78.4432788, 17.4144193], [78.4433504, 17.4144068]]]}}, {"type": "Feature", "id": "way/689847043", "properties": {"osm_id": 689847043, "osm_type": "way", "addr:district": "Hyderabad", "addr:full": "Plot Number 298, Road Number 14, Resham Bagh, Banjara Hills", "addr:state": "Telangana", "amenity": "hospital", "building": "yes", "health_facility:type": "In Patient Admission Facility;Alcohol and Drug Detoxification;Electro Convulsive Therapy ECT ;Repetitive Transcranial Magnetic Stimulation;Repetitive Transcranial Magnetic Stimulation;Psychotherapy;Child and Adolescent Behavioral Issues;Pharmacy Services", "healthcare": "hospital", "healthcare:speciality": "Asha Alcohol and Drug De Addiction Centre;Asha Schizophrenia Clinic;Asha Jyoti Rehabilitation Centre AJRC", "medical_system": "Allopathic", "name": "Asha Hospital", "operator:type": "private", "phone": "040 66752222;040 23546728", "source": "OpenGovernmentData", "website": "https://www.ashahospital.org/", "wikidata": "Q52856510"}, "geometry": {"type": "Polygon", "coordinates": [[[78.4344749, 17.421322], [78.4346571, 17.4212703], [78.4345742, 17.4210046], [78.434392, 17.4210563], [78.4344749, 17.421322]]]}}, {"type": "Feature", "id": "way/854193408", "properties": {"osm_id": 854193408, "osm_type": "way", "amenity": "parking", "building": "shed"}, "geometry": {"type": "Polygon", "coordinates": [[[78.4300507, 17.4173908], [78.4300715, 17.4175635], [78.430126, 17.4175575], [78.4301168, 17.4174804], [78.4301052, 17.4173848], [78.4300507, 17.4173908]]]}}, {"type": "Feature", "id": "way/854194180", "properties": {"osm_id": 854194180, "osm_type": "way", "amenity": "parking"}, "geometry": {"type": "Polygon", "coordinates": [[[78.4303578, 17.4174695], [78.4304077, 17.4175091], [78.4306402, 17.4173555], [78.4306133, 17.4173447], [78.4303578, 17.4174695]]]}}, {"type": "Feature", "id": "way/854194181", "properties": {"osm_id": 854194181, "osm_type": "way", "amenity": "parking"}, "geometry": {"type": "Polygon", "coordinates": [[[78.4301168, 17.4174804], [78.4306361, 17.4172813], [78.4306321, 17.417257], [78.430103, 17.4173428], [78.4301052, 17.4173848], [78.4301168, 17.4174804]]]}}, {"type": "Feature", "id": "way/854194182", "properties": {"osm_id": 854194182, "osm_type": "way", "amenity": "parking"}, "geometry": {"type": "Polygon", "coordinates": [[[78.4309462, 17.4169039], [78.4309654, 17.4170952], [78.4315121, 17.4170451], [78.4314898, 17.4168235], [78.4309431, 17.4168735], [78.4309462, 17.4169039]]]}}, {"type": "Feature", "id": "way/860550549", "properties": {"osm_id": 860550549, "osm_type": "way", "addr:district": "Hyderabad", "addr:full": "Road No. 2, Banjara Hills, Near LV Prasad Eye Hospital, Next to Hotel Park Hyatt", "addr:postcode": "500034", "addr:state": "Telangana", "amenity": "hospital", "contact:email": "info@rainbowhospitals.in", "emergency_telephone_code": "040 22334455;040 23319191", "healthcare": "hospital", "healthcare:speciality": "General Pediatrics;Neonatology;Pediatric Neurology;Pediatric Intensive Care Unit;Anasthesia and Pain Management;Pediatric Gastroenterology;Pediatric Nephrology;Hematology and Oncology;ENT;Psychiatry;Pediatric Cardiology;Speech and Language Therapy", "medical_system": "Allopathic", "name": "Rainbow Children\u2019s Hospital", "name:te": "\u0c30\u0c46\u0c2f\u0c3f\u0c28\u0c4d\u0c2c\u0c4b \u0c2a\u0c3f\u0c32\u0c4d\u0c32\u0c32 \u0c39\u0c3e\u0c38\u0c4d\u0c2a\u0c3f\u0c1f\u0c32\u0c4d", "operator:type": "private", "phone": "04023319191;04044665555", "source": "OpenGovernmentData", "website": "https://www.rainbowhospitals.in/"}, "geometry": {"type": "Polygon", "coordinates": [[[78.4318347, 17.4248417], [78.4316931, 17.4260213], [78.4320209, 17.4260648], [78.4321541, 17.4248765], [78.4318347, 17.4248417]]]}}, {"type": "Feature", "id": "way/1059327349", "properties": {"osm_id": 1059327349, "osm_type": "way", "addr:city": "Hyderabad", "addr:district": "Hyderabad", "addr:housenumber": "Road No.3", "addr:postcode": "500034", "addr:street": "GAR Laxmi Pinnacle, BNR colony, Venkat Nagar", "air_conditioning": "yes", "amenity": "cafe", "brand": "ROAST", "building": "yes", "cuisine": "coffee_shop", "internet_access": "wlan", "internet_access:fee": "no", "name": "Roast CCx", "opening_hours": "24/7", "outdoor_seating": "yes", "phone": "+91-8096116999", "smoking": "outside", "takeaway": "yes", "website": "https://roastcoffee.in/"}, "geometry": {"type": "Polygon", "coordinates": [[[78.4325284, 17.4238569], [78.4322832, 17.4232264], [78.4320777, 17.4232821], [78.4320053, 17.4233757], [78.4323276, 17.4238302], [78.4325284, 17.4238569]]]}}, {"type": "Feature", "id": "way/1410025376", "properties": {"osm_id": 1410025376, "osm_type": "way", "landuse": "commercial", "name": "The Joint Bar and Cafe"}, "geometry": {"type": "Polygon", "coordinates": [[[78.444226, 17.4175649], [78.4443031, 17.4178464], [78.4444976, 17.4178091], [78.4444495, 17.417454], [78.4443557, 17.4174721], [78.4443132, 17.4174817], [78.444226, 17.4175649]]]}}, {"type": "Feature", "id": "way/1522043843", "properties": {"osm_id": 1522043843, "osm_type": "way", "leisure": "pitch", "sport": "basketball"}, "geometry": {"type": "Polygon", "coordinates": [[[78.4432341, 17.4197547], [78.4431215, 17.4195302], [78.4432509, 17.4194711], [78.4433635, 17.4196957], [78.4432341, 17.4197547]]]}}, {"type": "Feature", "id": "way/1522043844", "properties": {"osm_id": 1522043844, "osm_type": "way", "amenity": "school", "education": "school", "name": "Meridian School"}, "geometry": {"type": "Polygon", "coordinates": [[[78.442845, 17.4193709], [78.4432175, 17.4201045], [78.4436698, 17.4199636], [78.4436354, 17.4197869], [78.4436061, 17.4195365], [78.4435463, 17.4191555], [78.442845, 17.4193709]]]}}, {"type": "Feature", "id": "way/1522084724", "properties": {"osm_id": 1522084724, "osm_type": "way", "amenity": "school", "education": "school", "name": "Delhi School of Excellence banjara Hills"}, "geometry": {"type": "Polygon", "coordinates": [[[78.4433286, 17.4214689], [78.4432308, 17.4211179], [78.443215, 17.4210379], [78.4432387, 17.4209007], [78.4434832, 17.4208142], [78.4436438, 17.4213855], [78.4433286, 17.4214689]]]}}]}