{"type": "FeatureCollection", "features": [{"type": "Feature", "id": "way/133763923", "properties": {"osm_id": 133763923, "osm_type": "way", "leisure": "swimming_pool", "name": "Waltair Club Swimming Pool"}, "geometry": {"type": "Polygon", "coordinates": [[[83.3177362, 17.7198501], [83.3175076, 17.7200096], [83.3174369, 17.7199178], [83.3176656, 17.7197582], [83.3177362, 17.7198501]]]}}, {"type": "Feature", "id": "way/389829082", "properties": {"osm_id": 389829082, "osm_type": "way", "amenity": "library", "building": "yes", "name": "AU Library"}, "geometry": {"type": "Polygon", "coordinates": [[[83.323013, 17.7213832], [83.3230095, 17.7215371], [83.3232132, 17.7215414], [83.3232068, 17.7218223], [83.3233719, 17.7218257], [83.3233781, 17.7215548], [83.323598, 17.7215593], [83.3235955, 17.7216709], [83.3237755, 17.7216747], [83.3237818, 17.7213991], [83.323013, 17.7213832]]]}}, {"type": "Feature", "id": "way/393571599", "properties": {"osm_id": 393571599, "osm_type": "way", "amenity": "parking"}, "geometry": {"type": "Polygon", "coordinates": [[[83.3212061, 17.7265541], [83.321271, 17.7266201], [83.321315, 17.7265808], [83.3212501, 17.7265148], [83.3212061, 17.7265541]]]}}, {"type": "Feature", "id": "way/393573306", "properties": {"osm_id": 393573306, "osm_type": "way", "leisure": "common"}, "geometry": {"type": "Polygon", "coordinates": [[[83.3203412, 17.727306], [83.3202829, 17.7273446], [83.3201864, 17.7274085], [83.3202028, 17.7274309], [83.3202807, 17.7273794], [83.320356, 17.7274826], [83.3203043, 17.7275168], [83.3203392, 17.7275646], [83.3204678, 17.7274795], [83.3204419, 17.727444], [83.3204014, 17.7273885], [83.3203739, 17.7273508], [83.3203412, 17.727306]]]}}, {"type": "Feature", "id": "way/393574047", "properties": {"osm_id": 393574047, "osm_type": "way", "amenity": "library", "building": "yes", "building:levels": "1", "height": "4", "name": "Civil Library"}, "geometry": {"type": "Polygon", "coordinates": [[[83.320239, 17.727789], [83.3201615, 17.7278208], [83.3202004, 17.727907], [83.3202779, 17.7278752], [83.320239, 17.727789]]]}}, {"type": "Feature", "id": "way/393927803", "properties": {"osm_id": 393927803, "osm_type": "way", "amenity": "bank", "atm": "yes", "building": "yes", "name": "SBI Zonal Office"}, "geometry": {"type": "Polygon", "coordinates": [[[83.3195855, 17.7264205], [83.3195316, 17.7264669], [83.3195498, 17.7264861], [83.319501, 17.7265282], [83.3195157, 17.7265436], [83.3192739, 17.7267519], [83.3192419, 17.7267182], [83.3191871, 17.7267654], [83.3192456, 17.726827], [83.3192321, 17.7268386], [83.3193822, 17.7269966], [83.3194895, 17.7269041], [83.3194161, 17.7268268], [83.3194535, 17.7267946], [83.3194035, 17.726742], [83.3194267, 17.726722], [83.3195473, 17.7268491], [83.3195295, 17.7268645], [83.3195906, 17.7269288], [83.3197061, 17.7268293], [83.3196282, 17.7267473], [83.3196048, 17.7267674], [83.3195586, 17.7267189], [83.3194985, 17.7266556], [83.3195171, 17.7266396], [83.3195738, 17.7266993], [83.3196198, 17.7266597], [83.3196949, 17.7267387], [83.319801, 17.7266473], [83.3195855, 17.7264205]]]}}, {"type": "Feature", "id": "way/394767205", "properties": {"osm_id": 394767205, "osm_type": "way", "amenity": "fountain"}, "geometry": {"type": "Polygon", "coordinates": [[[83.3178912, 17.7230448], [83.3178622, 17.7230634], [83.3178646, 17.7230965], [83.317896, 17.7231111], [83.317925, 17.7230926], [83.3179225, 17.7230594], [83.3178912, 17.7230448]]]}}, {"type": "Feature", "id": "way/396828475", "properties": {"osm_id": 396828475, "osm_type": "way", "amenity": "restaurant", "building": "hotel", "cuisine": "indian", "outdoor_seating": "yes"}, "geometry": {"type": "Polygon", "coordinates": [[[83.317933, 17.7206979], [83.3181904, 17.7207103], [83.318203, 17.7204718], [83.3179456, 17.7204595], [83.317933, 17.7206979]]]}}, {"type": "Feature", "id": "way/396828658", "properties": {"osm_id": 396828658, "osm_type": "way", "amenity": "concert_hall", "name": "Gurajada Kalakshetram"}, "geometry": {"type": "Polygon", "coordinates": [[[83.318626, 17.7201472], [83.3185928, 17.72043], [83.3187818, 17.7204502], [83.3188151, 17.7201673], [83.318626, 17.7201472]]]}}, {"type": "Feature", "id": "way/402616013", "properties": {"osm_id": 402616013, "osm_type": "way", "landuse": "brownfield"}, "geometry": {"type": "Polygon", "coordinates": [[[83.3130257, 17.7208485], [83.3131658, 17.7204867], [83.3132601, 17.7205198], [83.3132333, 17.720589], [83.3136359, 17.7207304], [83.3135935, 17.7208397], [83.313521, 17.7208142], [83.3132332, 17.7207132], [83.3131623, 17.7208965], [83.3130257, 17.7208485]]]}}, {"type": "Feature", "id": "way/402616056", "properties": {"osm_id": 402616056, "osm_type": "way", "landuse": "brownfield"}, "geometry": {"type": "Polygon", "coordinates": [[[83.314273, 17.7209064], [83.3145474, 17.7210314], [83.3146227, 17.7208815], [83.3143483, 17.7207565], [83.314273, 17.7209064]]]}}, {"type": "Feature", "id": "way/402616195", "properties": {"osm_id": 402616195, "osm_type": "way", "amenity": "school", "name": "Bethany School"}, "geometry": {"type": "Polygon", "coordinates": [[[83.3144555, 17.7212373], [83.314661, 17.7213413], [83.3147212, 17.7212332], [83.3146292, 17.7211867], [83.3146691, 17.7211151], [83.3145556, 17.7210577], [83.3144555, 17.7212373]]]}}, {"type": "Feature", "id": "way/402618564", "properties": {"osm_id": 402618564, "osm_type": "way", "landuse": "brownfield"}, "geometry": {"type": "Polygon", "coordinates": [[[83.3164663, 17.7227016], [83.3166908, 17.7228377], [83.3168014, 17.7226721], [83.3165769, 17.7225361], [83.3164663, 17.7227016]]]}}, {"type": "Feature", "id": "way/402836656", "properties": {"osm_id": 402836656, "osm_type": "way", "amenity": "bank", "brand:wikidata": "Q1340361", "brand:wikipedia": "en:State Bank of India", "building": "yes", "name": "Abandoned building", "short_name": "SBI", "website": "https://www.sbi.co.in"}, "geometry": {"type": "Polygon", "coordinates": [[[83.3192457, 17.7276915], [83.3194018, 17.7278071], [83.3195237, 17.7276578], [83.3193676, 17.7275422], [83.3192457, 17.7276915]]]}}, {"type": "Feature", "id": "way/403863605", "properties": {"osm_id": 403863605, "osm_type": "way", "amenity": "bank", "building": "yes", "name": "Cooperative Credit Society SBI Employees"}, "geometry": {"type": "Polygon", "coordinates": [[[83.3187143, 17.7267631], [83.3186433, 17.7266992], [83.3187519, 17.7265945], [83.318835, 17.7266737], [83.318768, 17.7267312], [83.3187143, 17.7267631]]]}}, {"type": "Feature", "id": "way/431341689", "properties": {"osm_id": 431341689, "osm_type": "way", "amenity": "school"}, "geometry": {"type": "Polygon", "coordinates": [[[83.3128351, 17.7196074], [83.3128722, 17.7195511], [83.3130585, 17.7196627], [83.3130214, 17.7197189], [83.3128351, 17.7196074]]]}}, {"type": "Feature", "id": "way/431341695", "properties": {"osm_id": 431341695, "osm_type": "way", "amenity": "school", "name": "Sri Prakash"}, "geometry": {"type": "Polygon", "coordinates": [[[83.3137485, 17.7243036], [83.3139103, 17.7243275], [83.3139349, 17.7241763], [83.313773, 17.7241524], [83.3137485, 17.7243036]]]}}, {"type": "Feature", "id": "way/495863583", "properties": {"osm_id": 495863583, "osm_type": "way", "amenity": "community_centre", "name": "Waltair Club"}, "geometry": {"type": "Polygon", "coordinates": [[[83.3164394, 17.7211363], [83.3166446, 17.7211082], [83.3166352, 17.7210533], [83.3166741, 17.7210469], [83.3166862, 17.7210335], [83.3166875, 17.7209926], [83.3166573, 17.720976], [83.316656, 17.7209326], [83.3166882, 17.7209326], [83.3166855, 17.7209236], [83.3166989, 17.7209121], [83.3167244, 17.7209339], [83.3167418, 17.7209141], [83.3167069, 17.7208783], [83.3167069, 17.7208649], [83.3167324, 17.7208253], [83.3167331, 17.7207901], [83.3167157, 17.7207678], [83.3166821, 17.7207461], [83.316662, 17.7207384], [83.3166285, 17.7207403], [83.3166278, 17.7206937], [83.3165601, 17.7206994], [83.3165561, 17.7206202], [83.3165185, 17.7205857], [83.3164904, 17.720573], [83.31643, 17.7205743], [83.3163992, 17.7205985], [83.3163737, 17.7206317], [83.3163904, 17.720785], [83.3163536, 17.7208042], [83.3163683, 17.7209077], [83.3162718, 17.720923], [83.3162825, 17.720992], [83.3163777, 17.7209805], [83.3163831, 17.7210507], [83.3164072, 17.7210546], [83.3164354, 17.7210559], [83.3164394, 17.7211363]]]}}, {"type": "Feature", "id": "way/495863585", "properties": {"osm_id": 495863585, "osm_type": "way", "amenity": "parking"}, "geometry": {"type": "Polygon", "coordinates": [[[83.3129235, 17.7202847], [83.3130212, 17.7201133], [83.3128182, 17.7200083], [83.3126132, 17.7199023], [83.3125599, 17.7199957], [83.312604, 17.7200186], [83.3125737, 17.7200718], [83.3128453, 17.7202123], [83.3128312, 17.720237], [83.3129235, 17.7202847]]]}}, {"type": "Feature", "id": "way/509878606", "properties": {"osm_id": 509878606, "osm_type": "way", "addr:postcode": "530003", "amenity": "bank", "atm": "yes", "building": "yes", "building:levels": "1", "drive_through": "yes", "height": "4", "name": "Andhra Bank"}, "geometry": {"type": "Polygon", "coordinates": [[[83.3208258, 17.728088], [83.3208943, 17.7281137], [83.3209336, 17.7280153], [83.320865, 17.7279898], [83.3208258, 17.728088]]]}}, {"type": "Feature", "id": "way/509878643", "properties": {"osm_id": 509878643, "osm_type": "way", "amenity": "motorcycle_parking", "name": "Civil Engineering Parking"}, "geometry": {"type": "Polygon", "coordinates": [[[83.319783, 17.7274801], [83.3194461, 17.7271378], [83.3194822, 17.7271056], [83.3198191, 17.7274479], [83.319783, 17.7274801]]]}}, {"type": "Feature", "id": "way/520578421", "properties": {"osm_id": 520578421, "osm_type": "way", "amenity": "hospital", "building": "commercial", "building:levels": "1", "name": "AU North Campus Dispensary", "smoking": "no"}, "geometry": {"type": "Polygon", "coordinates": [[[83.3208002, 17.7271958], [83.3209005, 17.7273583], [83.3207985, 17.7274154], [83.3206982, 17.7272529], [83.3208002, 17.7271958]]]}}, {"type": "Feature", "id": "way/562027766", "properties": {"osm_id": 562027766, "osm_type": "way", "leisure": "swimming_pool"}, "geometry": {"type": "Polygon", "coordinates": [[[83.324172, 17.7183942], [83.3242004, 17.7185441], [83.3242951, 17.7185278], [83.3242667, 17.7183779], [83.324172, 17.7183942]]]}}, {"type": "Feature", "id": "way/630158587", "properties": {"osm_id": 630158587, "osm_type": "way", "amenity": "university", "name": "Andhra University", "wikidata": "Q3521052", "wikimedia_commons": "Category:Andhra_University", "wikipedia": "en:Andhra University"}, "geometry": {"type": "Polygon", "coordinates": [[[83.3212003, 17.7344547], [83.3216965, 17.7343551], [83.3236679, 17.734092], [83.3237833, 17.7337752], [83.3241695, 17.7336398], [83.3238369, 17.7329781], [83.3250734, 17.732577], [83.3254275, 17.7325029], [83.3263072, 17.7322525], [83.3263072, 17.7322142], [83.3265674, 17.7321912], [83.3265781, 17.7324927], [83.328445, 17.7321452], [83.3284235, 17.7319025], [83.3285683, 17.7318974], [83.3286686, 17.7306635], [83.3287085, 17.7303438], [83.3287848, 17.7299635], [83.3289254, 17.7299566], [83.3287832, 17.7298591], [83.328816, 17.7298157], [83.3276001, 17.7289883], [83.3272292, 17.7295508], [83.3271474, 17.7296473], [83.3269429, 17.7295208], [83.3268316, 17.7296537], [83.3266465, 17.7296326], [83.3261353, 17.7293339], [83.3264561, 17.7288253], [83.3260873, 17.7286081], [83.3260055, 17.7287231], [83.3258258, 17.7286055], [83.3254825, 17.7291612], [83.3250815, 17.728893], [83.3249232, 17.728709], [83.3248401, 17.7285276], [83.3242258, 17.7281137], [83.3243814, 17.7278378], [83.3239603, 17.7275772], [83.3240421, 17.7274303], [83.3241414, 17.727171], [83.3239174, 17.7270637], [83.3239214, 17.7269513], [83.3239563, 17.7268235], [83.3239898, 17.7266996], [83.3234949, 17.7264263], [83.3234547, 17.7269168], [83.3229934, 17.7267814], [83.3229116, 17.7269219], [83.3223885, 17.7265987], [83.3224797, 17.7264505], [83.322418, 17.7264199], [83.3222102, 17.7263509], [83.3221753, 17.7265387], [83.3214913, 17.7264569], [83.3214819, 17.7265949], [83.3214203, 17.7265604], [83.3213257, 17.7264927], [83.3211948, 17.7264818], [83.3211814, 17.7265451], [83.3210444, 17.7265187], [83.3209991, 17.7265067], [83.3206907, 17.7264735], [83.3206826, 17.7268286], [83.3204144, 17.7270714], [83.3201207, 17.7268529], [83.3193147, 17.7271314], [83.3186978, 17.7273818], [83.3185583, 17.7273997], [83.3183585, 17.7274099], [83.318101, 17.7274278], [83.3182177, 17.7281278], [83.3175485, 17.7281738], [83.3175404, 17.7283539], [83.3172762, 17.7283999], [83.3172119, 17.728488], [83.3169785, 17.7290526], [83.3169168, 17.7290488], [83.3169839, 17.729547], [83.3168846, 17.7300273], [83.3167586, 17.7308857], [83.3174613, 17.7313239], [83.3177362, 17.7312843], [83.3178127, 17.73126], [83.3182459, 17.7320481], [83.3185074, 17.7324786], [83.3179091, 17.7326614], [83.318621, 17.7333975], [83.3197408, 17.7344123], [83.319874, 17.7345097], [83.3202817, 17.7348737], [83.3209053, 17.7345646], [83.3212003, 17.7344547]]]}}, {"type": "Feature", "id": "way/635582158", "properties": {"osm_id": 635582158, "osm_type": "way", "addr:city": "Visakhapatnam", "addr:postcode": "530003", "addr:street": "Waltair Uplands", "amenity": "events_venue", "building": "yes", "name": "Waltair Club Function Hall"}, "geometry": {"type": "Polygon", "coordinates": [[[83.3171593, 17.7190027], [83.3167301, 17.7190589], [83.3166979, 17.7188391], [83.3167811, 17.7188289], [83.3167784, 17.7187523], [83.3168616, 17.7187369], [83.3168669, 17.7186731], [83.3169662, 17.7186603], [83.3169635, 17.7185709], [83.3171217, 17.7185326], [83.3171593, 17.7190027]]]}}, {"type": "Feature", "id": "way/637147291", "properties": {"osm_id": 637147291, "osm_type": "way", "amenity": "university", "name": "Andhra University"}, "geometry": {"type": "Polygon", "coordinates": [[[83.3181249, 17.7232287], [83.3181249, 17.7229119], [83.3183502, 17.7226461], [83.3193265, 17.7218286], [83.3202492, 17.7213482], [83.3211611, 17.7209803], [83.3226632, 17.7209395], [83.3241437, 17.721103], [83.325163, 17.72143], [83.3257101, 17.7215629], [83.32615, 17.7215935], [83.3270083, 17.7218388], [83.3276628, 17.7221249], [83.3288859, 17.7225644], [83.3306735, 17.723074], [83.3304626, 17.7235075], [83.3306674, 17.7238097], [83.3306952, 17.723902], [83.3308978, 17.7241823], [83.3308493, 17.7242557], [83.3306508, 17.7245419], [83.33005, 17.7249404], [83.3299534, 17.7250886], [83.3291487, 17.7255536], [83.3292882, 17.7260748], [83.3295403, 17.7263814], [83.3297656, 17.7267595], [83.3292989, 17.7271325], [83.3278237, 17.7274544], [83.3273785, 17.7268413], [83.3270995, 17.7270252], [83.3270942, 17.7271785], [83.3262944, 17.7275748], [83.326032, 17.7277048], [83.3230013, 17.7258955], [83.3224183, 17.725551], [83.3216629, 17.7251676], [83.3197658, 17.7242918], [83.3189768, 17.7238327], [83.3181249, 17.7232287]]]}}, {"type": "Feature", "id": "way/776651179", "properties": {"osm_id": 776651179, "osm_type": "way", "amenity": "school", "name": "Narayana school"}, "geometry": {"type": "Polygon", "coordinates": [[[83.3128695, 17.7236772], [83.3129922, 17.7236935], [83.3130186, 17.7233813], [83.3128959, 17.7233739], [83.3128695, 17.7236772]]]}}, {"type": "Feature", "id": "way/912867800", "properties": {"osm_id": 912867800, "osm_type": "way", "addr:city": "Visakhapatnam", "addr:housenumber": "495/2009", "addr:postcode": "530003", "addr:street": "Sarwa Park Lane", "description": "Walking Track with Outdoor Gym", "leisure": "park", "name": "SARWA Park", "opening_hours": "Mo-Su 07:00-23:00", "operator": "Siripuram Area Residents Welfare Association"}, "geometry": {"type": "Polygon", "coordinates": [[[83.3164135, 17.7236489], [83.3165305, 17.7234682], [83.3167668, 17.7235753], [83.3167046, 17.7236925], [83.3163932, 17.7236703], [83.3164047, 17.7236547], [83.3164135, 17.7236489]]]}}, {"type": "Feature", "id": "way/912871550", "properties": {"osm_id": 912871550, "osm_type": "way", "addr:city": "Visakhapatnam", "addr:housenumber": "Door No-10-2-8,Plot, Number 5", "addr:postcode": "530003", "addr:street": "Waltair Uplands, Siripuram", "air_conditioning": "yes", "amenity": "restaurant", "building": "yes", "name": "Treebo Trend PL Grand - Siripuram Visakhapatnam", "opening_hours": "24/7", "phone": "+919322800100", "reservation": "yes", "takeaway": "yes", "website": "https://www.treebo.com/hotels-in-visakhapatnam/treebo-pl-grand-siripuram-685/?utm_source=partnerships&utm_medium=gplus&utm_campaign=plgrand"}, "geometry": {"type": "Polygon", "coordinates": [[[83.3173642, 17.7241544], [83.3174565, 17.724181], [83.3175466, 17.7239332], [83.3174447, 17.7239081], [83.3173991, 17.7240359], [83.3173642, 17.7241544]]]}}, {"type": "Feature", "id": "way/912872106", "properties": {"osm_id": 912872106, "osm_type": "way", "addr:city": "Visakhapatnam", "addr:housenumber": "10-2-1", "addr:postcode": "530003", "addr:street": "Vivana main Road", "amenity": "restaurant", "building": "yes", "name": "Hotel Vivana", "opening_hours": "24/7"}, "geometry": {"type": "Polygon", "coordinates": [[[83.316749, 17.7230023], [83.3168716, 17.7230692], [83.3169228, 17.7230023], [83.3168056, 17.722907], [83.316749, 17.7230023]]]}}, {"type": "Feature", "id": "way/1249184637", "properties": {"osm_id": 1249184637, "osm_type": "way", "landuse": "construction", "name": "MVV Peak"}, "geometry": {"type": "Polygon", "coordinates": [[[83.316, 17.7248522], [83.3159541, 17.7245049], [83.3159799, 17.7241849], [83.3161206, 17.7239688], [83.3164852, 17.7240153], [83.3167867, 17.7240809], [83.3171054, 17.7241603], [83.3176287, 17.7243544], [83.317539, 17.724472], [83.3174557, 17.7246006], [83.317249, 17.7247565], [83.3170767, 17.7248194], [83.3164824, 17.7248522], [83.316, 17.7248522]]]}}, {"type": "Feature", "id": "way/1249184639", "properties": {"osm_id": 1249184639, "osm_type": "way", "leisure": "park", "name": "GVMC Zen Park"}, "geometry": {"type": "Polygon", "coordinates": [[[83.314897, 17.7247929], [83.3151112, 17.7247929], [83.3151656, 17.7245549], [83.3155564, 17.7245406], [83.3156165, 17.724129], [83.3150191, 17.7241308], [83.3150041, 17.7242919], [83.314897, 17.7243187], [83.314897, 17.7247929]]]}}, {"type": "Feature", "id": "way/1249184684", "properties": {"osm_id": 1249184684, "osm_type": "way", "leisure": "outdoor_seating"}, "geometry": {"type": "Polygon", "coordinates": [[[83.3180994, 17.723483], [83.3181784, 17.7235049], [83.3181669, 17.7235568], [83.3181209, 17.7235691], [83.3180678, 17.7235842], [83.3180549, 17.7236129], [83.3180779, 17.7239411], [83.3180147, 17.7239534], [83.3179874, 17.7235432], [83.3180147, 17.7234857], [83.3180994, 17.723483]]]}}, {"type": "Feature", "id": "way/1249184687", "properties": {"osm_id": 1249184687, "osm_type": "way", "leisure": "garden"}, "geometry": {"type": "Polygon", "coordinates": [[[83.3179832, 17.7232399], [83.3179358, 17.7232298], [83.3178841, 17.7231893], [83.3178423, 17.7231327], [83.3178154, 17.7230908], [83.3177913, 17.723047], [83.3177786, 17.7229951], [83.3177751, 17.7229499], [83.3177949, 17.7229081], [83.317831, 17.7228973], [83.3178728, 17.7229034], [83.3179202, 17.7229405], [83.3179627, 17.7229823], [83.3180073, 17.723047], [83.3180264, 17.723107], [83.3180356, 17.7231502], [83.3180356, 17.7231853], [83.3180292, 17.7232196], [83.3180122, 17.7232385], [83.3179832, 17.7232399]]]}}, {"type": "Feature", "id": "way/1265437146", "properties": {"osm_id": 1265437146, "osm_type": "way", "landuse": "grass"}, "geometry": {"type": "Polygon", "coordinates": [[[83.3200639, 17.7211049], [83.3200316, 17.7211186], [83.3199964, 17.7211211], [83.3199651, 17.7211133], [83.319938, 17.7210966], [83.3199177, 17.7210727], [83.3199062, 17.7210439], [83.3199046, 17.7210131], [83.3199132, 17.7209835], [83.3199311, 17.7209578], [83.3199565, 17.7209387], [83.3199868, 17.7209281], [83.3200191, 17.7209271], [83.3200529, 17.7209369], [83.3200812, 17.7209571], [83.3201006, 17.7209852], [83.3201088, 17.7210179], [83.3201049, 17.7210514], [83.3200893, 17.7210816], [83.3200639, 17.7211049]]]}}, {"type": "Feature", "id": "way/1272678501", "properties": {"osm_id": 1272678501, "osm_type": "way", "leisure": "pitch", "sport": "tennis"}, "geometry": {"type": "Polygon", "coordinates": [[[83.3195979, 17.718738], [83.3194162, 17.7184486], [83.3195698, 17.7183611], [83.3197515, 17.7186504], [83.3195979, 17.718738]]]}}, {"type": "Feature", "id": "way/1272678502", "properties": {"osm_id": 1272678502, "osm_type": "way", "leisure": "pitch", "sport": "tennis"}, "geometry": {"type": "Polygon", "coordinates": [[[83.3198956, 17.7182224], [83.3197461, 17.7181222], [83.3199398, 17.71786], [83.3200894, 17.7179603], [83.3198956, 17.7182224]]]}}, {"type": "Feature", "id": "way/1272678503", "properties": {"osm_id": 1272678503, "osm_type": "way", "leisure": "pitch", "sport": "tennis"}, "geometry": {"type": "Polygon", "coordinates": [[[83.3197166, 17.7181085], [83.3195671, 17.7180082], [83.3197609, 17.717746], [83.3199104, 17.7178463], [83.3197166, 17.7181085]]]}}, {"type": "Feature", "id": "way/1344815260", "properties": {"osm_id": 1344815260, "osm_type": "way", "amenity": "school", "barrier": "wall", "name": "Timpany School"}, "geometry": {"type": "Polygon", "coordinates": [[[83.3129445, 17.7264416], [83.3130813, 17.7259804], [83.3130504, 17.7259268], [83.3119936, 17.7257186], [83.311716, 17.7261376], [83.3123812, 17.7265221], [83.3129445, 17.7264416]]]}}, {"type": "Feature", "id": "way/1345140484", "properties": {"osm_id": 1345140484, "osm_type": "way", "leisure": "pitch", "sport": "basketball"}, "geometry": {"type": "Polygon", "coordinates": [[[83.3175526, 17.7190666], [83.3175981, 17.7191909], [83.317854, 17.7191058], [83.3178085, 17.7189815], [83.3175526, 17.7190666]]]}}, {"type": "Feature", "id": "way/1345650506", "properties": {"osm_id": 1345650506, "osm_type": "way", "landuse": "retail"}, "geometry": {"type": "Polygon", "coordinates": [[[83.3164796, 17.7256304], [83.3164957, 17.7253775], [83.3152056, 17.7253673], [83.3152203, 17.7251143], [83.3167304, 17.7251565], [83.3167545, 17.725191], [83.3167747, 17.7252536], [83.3167747, 17.7253302], [83.316768, 17.7253558], [83.3166942, 17.7256509], [83.3164796, 17.7256304]]]}}, {"type": "Feature", "id": "way/1345650507", "properties": {"osm_id": 1345650507, "osm_type": "way", "landuse": "retail"}, "geometry": {"type": "Polygon", "coordinates": [[[83.3138183, 17.7251826], [83.3138721, 17.7249647], [83.3125117, 17.7246604], [83.3124579, 17.7248784], [83.3138183, 17.7251826]]]}}, {"type": "Feature", "id": "way/1347455868", "properties": {"osm_id": 1347455868, "osm_type": "way", "amenity": "bank", "brand": "Dhanlaxmi Bank", "brand:wikidata": "Q2040440", "building": "commercial", "name": "Dhanlaxmi Bank"}, "geometry": {"type": "Polygon", "coordinates": [[[83.3163092, 17.726158], [83.3164276, 17.7261619], [83.3164361, 17.7259712], [83.3163083, 17.725966], [83.3163092, 17.726158]]]}}, {"type": "Feature", "id": "way/1347460411", "properties": {"osm_id": 1347460411, "osm_type": "way", "amenity": "cafe", "building": "yes"}, "geometry": {"type": "Polygon", "coordinates": [[[83.3196888, 17.724736], [83.3197937, 17.7246881], [83.3197799, 17.7246403], [83.319755, 17.7246487], [83.3197396, 17.7246187], [83.3197147, 17.7246292], [83.3196921, 17.7245861], [83.3196617, 17.7245698], [83.3196457, 17.7245708], [83.319623, 17.7245561], [83.3195943, 17.724594], [83.3196473, 17.7246218], [83.3196297, 17.724624], [83.3196352, 17.7246534], [83.3196888, 17.724736]]]}}, {"type": "Feature", "id": "way/1347460413", "properties": {"osm_id": 1347460413, "osm_type": "way", "amenity": "cafe", "building": "yes"}, "geometry": {"type": "Polygon", "coordinates": [[[83.3185082, 17.7249594], [83.3187256, 17.7249313], [83.3187074, 17.7247949], [83.3184748, 17.7248295], [83.3185082, 17.7249594]]]}}, {"type": "Feature", "id": "way/1393457843", "properties": {"osm_id": 1393457843, "osm_type": "way", "leisure": "pitch", "sport": "basketball"}, "geometry": {"type": "Polygon", "coordinates": [[[83.323651, 17.7184184], [83.3237812, 17.718462], [83.3238631, 17.7182403], [83.3237328, 17.7181966], [83.323651, 17.7184184]]]}}, {"type": "Feature", "id": "way/1393457844", "properties": {"osm_id": 1393457844, "osm_type": "way", "leisure": "pitch", "sport": "tennis"}, "geometry": {"type": "Polygon", "coordinates": [[[83.3238495, 17.7184621], [83.3239281, 17.7184932], [83.3240123, 17.7183], [83.3239337, 17.7182689], [83.3238495, 17.7184621]]]}}, {"type": "Feature", "id": "way/1414032404", "properties": {"osm_id": 1414032404, "osm_type": "way", "landuse": "construction"}, "geometry": {"type": "Polygon", "coordinates": [[[83.3167413, 17.7180695], [83.3167236, 17.7179685], [83.3166331, 17.7178064], [83.316622, 17.7174634], [83.3172913, 17.7173919], [83.3175454, 17.7176044], [83.3176271, 17.717737], [83.3176735, 17.7180884], [83.3172339, 17.7181368], [83.3167413, 17.7180695]]]}}, {"type": "Feature", "id": "way/1414032405", "properties": {"osm_id": 1414032405, "osm_type": "way", "leisure": "pitch", "sport": "tennis"}, "geometry": {"type": "Polygon", "coordinates": [[[83.3171375, 17.7199376], [83.3170979, 17.7198009], [83.317175, 17.7197806], [83.3172147, 17.7199173], [83.3171375, 17.7199376]]]}}, {"type": "Feature", "id": "way/1414032406", "properties": {"osm_id": 1414032406, "osm_type": "way", "leisure": "pitch", "sport": "tennis"}, "geometry": {"type": "Polygon", "coordinates": [[[83.317224, 17.7199115], [83.3171843, 17.7197748], [83.3172614, 17.7197545], [83.3173011, 17.7198912], [83.317224, 17.7199115]]]}}, {"type": "Feature", "id": "way/1414032407", "properties": {"osm_id": 1414032407, "osm_type": "way", "leisure": "pitch", "sport": "tennis"}, "geometry": {"type": "Polygon", "coordinates": [[[83.3172813, 17.7207259], [83.3172697, 17.7205075], [83.3173792, 17.7205023], [83.3173907, 17.7207206], [83.3172813, 17.7207259]]]}}, {"type": "Feature", "id": "way/1414032408", "properties": {"osm_id": 1414032408, "osm_type": "way", "leisure": "pitch", "sport": "tennis"}, "geometry": {"type": "Polygon", "coordinates": [[[83.3175015, 17.7207214], [83.3174899, 17.720503], [83.3175994, 17.7204978], [83.3176109, 17.7207161], [83.3175015, 17.7207214]]]}}, {"type": "Feature", "id": "way/1414032409", "properties": {"osm_id": 1414032409, "osm_type": "way", "landuse": "construction"}, "geometry": {"type": "Polygon", "coordinates": [[[83.316261, 17.7214531], [83.3171589, 17.7213693], [83.3170448, 17.722246], [83.3162741, 17.7216206], [83.316261, 17.7214531]]]}}, {"type": "Feature", "id": "way/1414032414", "properties": {"osm_id": 1414032414, "osm_type": "way", "landuse": "retail"}, "geometry": {"type": "Polygon", "coordinates": [[[83.3142115, 17.7207755], [83.3137515, 17.7205711], [83.3135097, 17.7211325], [83.3138662, 17.7211714], [83.3140139, 17.7211455], [83.3142115, 17.7207755]]]}}, {"type": "Feature", "id": "way/1433967176", "properties": {"osm_id": 1433967176, "osm_type": "way", "landuse": "residential", "name": "Pragati's Royale", "residential": "apartments"}, "geometry": {"type": "Polygon", "coordinates": [[[83.3135673, 17.7233847], [83.3129787, 17.723372], [83.3129866, 17.7230363], [83.3135753, 17.723049], [83.3135673, 17.7233847]]]}}, {"type": "Feature", "id": "way/1433967177", "properties": {"osm_id": 1433967177, "osm_type": "way", "landuse": "residential", "name": "Balaji Clifton", "residential": "apartments"}, "geometry": {"type": "Polygon", "coordinates": [[[83.3139475, 17.7226986], [83.3141846, 17.7227192], [83.3141536, 17.7222249], [83.3139266, 17.722247], [83.3139475, 17.7226986]]]}}, {"type": "Feature", "id": "way/1433967178", "properties": {"osm_id": 1433967178, "osm_type": "way", "landuse": "residential", "name": "Emerald Atrium", "residential": "apartments"}, "geometry": {"type": "Polygon", "coordinates": [[[83.3145052, 17.7227369], [83.3145641, 17.7222293], [83.3148197, 17.7222972], [83.3148375, 17.7227738], [83.3145052, 17.7227369]]]}}, {"type": "Feature", "id": "way/1433967179", "properties": {"osm_id": 1433967179, "osm_type": "way", "landuse": "residential", "name": "Balaji 99 Uplands", "residential": "apartments"}, "geometry": {"type": "Polygon", "coordinates": [[[83.3145083, 17.7218275], [83.3136516, 17.7217021], [83.3135912, 17.7220385], [83.3140095, 17.7221831], [83.314454, 17.72204], [83.3145083, 17.7218275]]]}}, {"type": "Feature", "id": "way/1463043467", "properties": {"osm_id": 1463043467, "osm_type": "way", "landuse": "commercial", "name": "All India Radio"}, "geometry": {"type": "Polygon", "coordinates": [[[83.3189017, 17.7192866], [83.3183478, 17.7195293], [83.3182123, 17.7193172], [83.3180822, 17.7186133], [83.3180903, 17.7184792], [83.3181842, 17.7183297], [83.3182619, 17.7182825], [83.3183049, 17.7182786], [83.3183303, 17.7182863], [83.3183947, 17.7183476], [83.3186898, 17.718902], [83.3189017, 17.7192866]]]}}, {"type": "Feature", "id": "way/1495790935", "properties": {"osm_id": 1495790935, "osm_type": "way", "barrier": "wall", "landuse": "religious", "name": "Mar Thoma Syrian Church", "religion": "christian"}, "geometry": {"type": "Polygon", "coordinates": [[[83.3159673, 17.7180224], [83.3161176, 17.7177961], [83.3166255, 17.7181024], [83.3164752, 17.7183286], [83.3159673, 17.7180224]]]}}, {"type": "Feature", "id": "way/1495790937", "properties": {"osm_id": 1495790937, "osm_type": "way", "barrier": "wall", "landuse": "religious", "name": "Utkal Sanskrutika Samaj", "religion": "hindu", "website": "https://www.utkalsanskrutikasamaj.com/"}, "geometry": {"type": "Polygon", "coordinates": [[[83.3164307, 17.7185311], [83.3167424, 17.7181571], [83.3171174, 17.7182627], [83.3165821, 17.7188666], [83.3164307, 17.7185311]]]}}, {"type": "Feature", "id": "way/1530110432", "properties": {"osm_id": 1530110432, "osm_type": "way", "landuse": "residential", "name": "HPCL Waltair Park"}, "geometry": {"type": "Polygon", "coordinates": [[[83.3256217, 17.7212504], [83.3247267, 17.7210739], [83.323436, 17.7207323], [83.3229944, 17.7207432], [83.3230008, 17.7202127], [83.3221783, 17.7202154], [83.3221866, 17.7207368], [83.3213124, 17.7206858], [83.3209369, 17.720795], [83.3210474, 17.7203342], [83.3202373, 17.7202301], [83.319925, 17.7203796], [83.3201688, 17.7198151], [83.3203201, 17.7190764], [83.3205723, 17.7181095], [83.3203733, 17.7175224], [83.3208964, 17.7175327], [83.3209144, 17.7173365], [83.3217463, 17.7170344], [83.3225351, 17.717072], [83.3233156, 17.717828], [83.3240381, 17.7181738], [83.3246956, 17.7183679], [83.3252004, 17.7189707], [83.3253115, 17.7200867], [83.3256217, 17.7212504]]]}}, {"type": "Feature", "id": "way/1530110434", "properties": {"osm_id": 1530110434, "osm_type": "way", "amenity": "college", "education": "college", "name": "AU Marine Sciences"}, "geometry": {"type": "Polygon", "coordinates": [[[83.3256217, 17.7212504], [83.3253115, 17.7200867], [83.3252004, 17.7189707], [83.3246956, 17.7183679], [83.3240381, 17.7181738], [83.3244325, 17.7173212], [83.3257996, 17.7182188], [83.3259101, 17.7183569], [83.3268446, 17.7187516], [83.3271737, 17.7189533], [83.3270521, 17.7191545], [83.3271033, 17.7201263], [83.3270342, 17.7205485], [83.3265019, 17.7214609], [83.3256217, 17.7212504]]]}}, {"type": "Feature", "id": "relation/7708022", "properties": {"osm_id": 7708022, "osm_type": "relation", "amenity": "university", "amenity:type": "department", "building": "yes", "building:levels": "2", "name": "Geo Engineering Department", "type": "multipolygon", "wheelchair": "limited"}, "geometry": {"type": "Polygon", "coordinates": [[[83.3211165, 17.7267964], [83.3211622, 17.7267717], [83.3211579, 17.7267645], [83.3211891, 17.7267477], [83.3211809, 17.7267339], [83.3212194, 17.7267131], [83.3211564, 17.7266073], [83.3211028, 17.7266362], [83.3211192, 17.7266638], [83.3210474, 17.7267027], [83.3210104, 17.7266459], [83.3210218, 17.7266389], [83.3209943, 17.7265984], [83.3207828, 17.7267289], [83.3208503, 17.7268281], [83.3208201, 17.7268467], [83.3208499, 17.7268905], [83.3208931, 17.7268639], [83.3208768, 17.7268399], [83.3209413, 17.7268], [83.3209566, 17.7268225], [83.3209787, 17.7268114], [83.3209961, 17.726798], [83.3210106, 17.7267827], [83.3210186, 17.7267689], [83.3210318, 17.7267539], [83.3210461, 17.7267443], [83.3210651, 17.7267402], [83.3210915, 17.7267846], [83.3211051, 17.7267772], [83.3211165, 17.7267964]]]}}]}